EUTELSAT 7A             
1 28187U 04008A   25352.30573147  .00000123  00000+0  00000+0 0  9999
2 28187   5.3714  74.1891 0000872 183.4880 160.3599  1.00269754 79538
EUTELSAT 174A           
1 28924U 05052A   25352.08906134  .00000031  00000+0  00000+0 0  9997
2 28924   3.7601  78.7911 0005806 190.8865  23.3725  1.00269360 50513
EUTELSAT HOTBIRD 13B    
1 29270U 06032A   25352.18975468  .00000180  00000+0  00000+0 0  9993
2 29270   1.1941  84.3281 0003506 177.9595 286.1597  1.00272777 45494
EUTELSAT HOTBIRD 13C    
1 33459U 08065A   25352.11601483 -.00000260  00000+0  00000+0 0  9991
2 33459   2.4847  81.3609 0003463 179.8119 177.2663  1.00272686 45520
EUTELSAT 36B            
1 36101U 09065A   25352.06461586  .00000137  00000+0  00000+0 0  9993
2 36101   0.0470  29.2437 0005630 236.7757 254.6750  1.00269459 58897
EUTELSAT KA-SAT 9A      
1 37258U 10069A   25351.34305860  .00000086  00000+0  00000+0 0  9998
2 37258   0.0490 339.6267 0002162 200.3213  38.7869  1.00271212 42180
EUTELSAT 7 WEST A       
1 37816U 11051A   25352.16086340 -.00000035  00000+0  00000+0 0  9995
2 37816   0.0618 354.1887 0005243 234.6073 268.8363  1.00272084 52060
EUTELSAT 16A            
1 37836U 11057A   25352.19558735  .00000130  00000+0  00000+0 0  9993
2 37836   0.0625 332.6028 0006171 298.0755 262.8292  1.00274763  5519
